{"type": "FeatureCollection", "features": [ {"type": "Feature", "properties": {"norad_id": 30267, "name": "FENGYUN 1C DEB", "group": "fengyun-1c-debris", "lat": -36.680263342773266, "lon": 54.345702654657934, "alt_km": 793.1223156800397, "timestamp": "2025-12-02T13:52:17.537252+00:00", "meta": {"OBJECT_NAME": "FENGYUN 1C DEB", "OBJECT_ID": "1999-025YC", "EPOCH": "2025-12-02T03:55:24.654720", "MEAN_MOTION": 14.23485749, "ECCENTRICITY": 0.00582456, "INCLINATION": 98.8513, "RA_OF_ASC_NODE": 47.2638, "ARG_OF_PERICENTER": 273.5188, "MEAN_ANOMALY": 85.9329, "EPHEMERIS_TYPE": 0, "CLASSIFICATION_TYPE": "U", "NORAD_CAT_ID": 30267, "ELEMENT_SET_NO": 999, "REV_AT_EPOCH": 97144, "BSTAR": 0.0017014185, "MEAN_MOTION_DOT": 3.892e-05, "MEAN_MOTION_DDOT": 0}, "tle": {"line1": "1 30267U 99025YC  25336.16347980  .00003892  00000+0  17014-2 0  9996", "line2": "2 30267  98.8513  47.2638 0058245 273.5188  85.9329 14.23485749971440"}}, "geometry": {"type": "Point", "coordinates": [54.345702654657934, -36.680263342773266]}}, {"type": "Feature", "properties": {"norad_id": 30270, "name": "FENGYUN 1C DEB", "group": "fengyun-1c-debris", "lat": 39.693076140003015, "lon": -16.69108389293663, "alt_km": 856.1226738429496, "timestamp": "2025-12-02T13:52:17.537262+00:00", "meta": {"OBJECT_NAME": "FENGYUN 1C DEB", "OBJECT_ID": "1999-025YF", "EPOCH": "2025-12-02T00:19:28.756992", "MEAN_MOTION": 14.11263173, "ECCENTRICITY": 0.00069007, "INCLINATION": 98.7028, "RA_OF_ASC_NODE": 350.0657, "ARG_OF_PERICENTER": 188.9467, "MEAN_ANOMALY": 225.2999, "EPHEMERIS_TYPE": 0, "CLASSIFICATION_TYPE": "U", "NORAD_CAT_ID": 30270, "ELEMENT_SET_NO": 999, "REV_AT_EPOCH": 97210, "BSTAR": 0.00012557872, "MEAN_MOTION_DOT": 1.84e-06, "MEAN_MOTION_DDOT": 0}, "tle": {"line1": "1 30270U 99025YF  25336.01352728  .00000184  00000+0  12558-3 0  9990", "line2": "2 30270  98.7028 350.0657 0006900 188.9467 225.2999 14.11263173972108"}}, "geometry": {"type": "Point", "coordinates": [-16.69108389293663, 39.693076140003015]}}, {"type": "Feature", "properties": {"norad_id": 30272, "name": "FENGYUN 1C DEB", "group": "fengyun-1c-debris", "lat": 31.94962268537903, "lon": -130.0867834782884, "alt_km": 805.8392344472177, "timestamp": "2025-12-02T13:52:17.537272+00:00", "meta": {"OBJECT_NAME": "FENGYUN 1C DEB", "OBJECT_ID": "1999-025YH", "EPOCH": "2025-12-01T03:13:44.701824", "MEAN_MOTION": 14.14624998, "ECCENTRICITY": 0.0051427, "INCLINATION": 98.9026, "RA_OF_ASC_NODE": 42.8646, "ARG_OF_PERICENTER": 136.1436, "MEAN_ANOMALY": 224.3838, "EPHEMERIS_TYPE": 0, "CLASSIFICATION_TYPE": "U", "NORAD_CAT_ID": 30272, "ELEMENT_SET_NO": 999, "REV_AT_EPOCH": 96692, "BSTAR": 0.0014070951, "MEAN_MOTION_DOT": 2.696e-05, "MEAN_MOTION_DDOT": 0}, "tle": {"line1": "1 30272U 99025YH  25335.13454516  .00002696  00000+0  14071-2 0  9993", "line2": "2 30272  98.9026  42.8646 0051427 136.1436 224.3838 14.14624998966923"}}, "geometry": {"type": "Point", "coordinates": [-130.0867834782884, 31.94962268537903]}}, {"type": "Feature", "properties": {"norad_id": 30273, "name": "FENGYUN 1C DEB", "group": "fengyun-1c-debris", "lat": -23.210821965799063, "lon": 167.6116544838264, "alt_km": 878.1774343301713, "timestamp": "2025-12-02T13:52:17.537283+00:00", "meta": {"OBJECT_NAME": "FENGYUN 1C DEB", "OBJECT_ID": "1999-025YJ", "EPOCH": "2025-12-01T13:32:48.779808", "MEAN_MOTION": 14.02630255, "ECCENTRICITY": 0.00606242, "INCLINATION": 98.8413, "RA_OF_ASC_NODE": 350.4549, "ARG_OF_PERICENTER": 280.9025, "MEAN_ANOMALY": 208.2095, "EPHEMERIS_TYPE": 0, "CLASSIFICATION_TYPE": "U", "NORAD_CAT_ID": 30273, "ELEMENT_SET_NO": 999, "REV_AT_EPOCH": 96372, "BSTAR": 0.00072724942, "MEAN_MOTION_DOT": 1.097e-05, "MEAN_MOTION_DDOT": 0}, "tle": {"line1": "1 30273U 99025YJ  25335.56445347  .00001097  00000+0  72725-3 0  9998", "line2": "2 30273  98.8413 350.4549 0060624 280.9025 208.2095 14.02630255963725"}}, "geometry": {"type": "Point", "coordinates": [167.6116544838264, -23.210821965799063]}}, {"type": "Feature", "properties": {"norad_id": 30274, "name": "FENGYUN 1C DEB", "group": "fengyun-1c-debris", "lat": 43.194507400748755, "lon": 95.3235987385339, "alt_km": 721.2482302708013, "timestamp": "2025-12-02T13:52:17.537293+00:00", "meta": {"OBJECT_NAME": "FENGYUN 1C DEB", "OBJECT_ID": "1999-025YK", "EPOCH": "2025-12-02T02:54:45.401184", "MEAN_MOTION": 14.51262156, "ECCENTRICITY": 0.00047825, "INCLINATION": 99.3015, "RA_OF_ASC_NODE": 103.6705, "ARG_OF_PERICENTER": 228.8123, "MEAN_ANOMALY": 310.889, "EPHEMERIS_TYPE": 0, "CLASSIFICATION_TYPE": "U", "NORAD_CAT_ID": 30274, "ELEMENT_SET_NO": 999, "REV_AT_EPOCH": 98056, "BSTAR": 0.0030720068, "MEAN_MOTION_DOT": 0.00012188, "MEAN_MOTION_DDOT": 0}, "tle": {"line1": "1 30274U 99025YK  25336.12135881  .00012188  00000+0  30720-2 0  9992", "line2": "2 30274  99.3015 103.6705 0004782 228.8123 310.8890 14.51262156980564"}}, "geometry": {"type": "Point", "coordinates": [95.3235987385339, 43.194507400748755]}}, {"type": "Feature", "properties": {"norad_id": 30275, "name": "FENGYUN 1C DEB", "group": "fengyun-1c-debris", "lat": -45.78633437007302, "lon": -128.3030976698063, "alt_km": 720.8416670600582, "timestamp": "2025-12-02T13:52:17.537305+00:00", "meta": {"OBJECT_NAME": "FENGYUN 1C DEB", "OBJECT_ID": "1999-025YL", "EPOCH": "2025-12-02T04:39:18.747072", "MEAN_MOTION": 14.45009512, "ECCENTRICITY": 0.00397882, "INCLINATION": 98.6291, "RA_OF_ASC_NODE": 60.2864, "ARG_OF_PERICENTER": 216.9748, "MEAN_ANOMALY": 172.8162, "EPHEMERIS_TYPE": 0, "CLASSIFICATION_TYPE": "U", "NORAD_CAT_ID": 30275, "ELEMENT_SET_NO": 999, "REV_AT_EPOCH": 97932, "BSTAR": 0.0027239672, "MEAN_MOTION_DOT": 9.565e-05, "MEAN_MOTION_DDOT": 0}, "tle": {"line1": "1 30275U 99025YL  25336.19396698  .00009565  00000+0  27240-2 0  9993", "line2": "2 30275  98.6291  60.2864 0039788 216.9748 172.8162 14.45009512979320"}}, "geometry": {"type": "Point", "coordinates": [-128.3030976698063, -45.78633437007302]}}, {"type": "Feature", "properties": {"norad_id": 30276, "name": "FENGYUN 1C DEB", "group": "fengyun-1c-debris", "lat": 65.94694219040088, "lon": -111.52239036136386, "alt_km": 777.2925831395005, "timestamp": "2025-12-02T13:52:17.537315+00:00", "meta": {"OBJECT_NAME": "FENGYUN 1C DEB", "OBJECT_ID": "1999-025YM", "EPOCH": "2025-12-02T03:15:00.820224", "MEAN_MOTION": 14.26917809, "ECCENTRICITY": 0.00256959, "INCLINATION": 98.8608, "RA_OF_ASC_NODE": 47.5729, "ARG_OF_PERICENTER": 121.4946, "MEAN_ANOMALY": 238.875, "EPHEMERIS_TYPE": 0, "CLASSIFICATION_TYPE": "U", "NORAD_CAT_ID": 30276, "ELEMENT_SET_NO": 999, "REV_AT_EPOCH": 97379, "BSTAR": 0.0014833254, "MEAN_MOTION_DOT": 3.572e-05, "MEAN_MOTION_DDOT": 0}, "tle": {"line1": "1 30276U 99025YM  25336.13542616  .00003572  00000+0  14833-2 0  9997", "line2": "2 30276  98.8608  47.5729 0025695 121.4946 238.8750 14.26917809973792"}}, "geometry": {"type": "Point", "coordinates": [-111.52239036136386, 65.94694219040088]}}, {"type": "Feature", "properties": {"norad_id": 30277, "name": "FENGYUN 1C DEB", "group": "fengyun-1c-debris", "lat": -45.216386242527875, "lon": 56.37446160169872, "alt_km": 880.7267869163416, "timestamp": "2025-12-02T13:52:17.537325+00:00", "meta": {"OBJECT_NAME": "FENGYUN 1C DEB", "OBJECT_ID": "1999-025YN", "EPOCH": "2025-12-02T04:02:09.672000", "MEAN_MOTION": 14.13479354, "ECCENTRICITY": 0.01238031, "INCLINATION": 98.9749, "RA_OF_ASC_NODE": 46.8009, "ARG_OF_PERICENTER": 207.3565, "MEAN_ANOMALY": 181.2516, "EPHEMERIS_TYPE": 0, "CLASSIFICATION_TYPE": "U", "NORAD_CAT_ID": 30277, "ELEMENT_SET_NO": 999, "REV_AT_EPOCH": 96640, "BSTAR": 0.0015581121, "MEAN_MOTION_DOT": 3.109e-05, "MEAN_MOTION_DDOT": 0}, "tle": {"line1": "1 30277U 99025YN  25336.16816750  .00003109  00000+0  15581-2 0  9991", "line2": "2 30277  98.9749  46.8009 0123803 207.3565 181.2516 14.13479354966409"}}, "geometry": {"type": "Point", "coordinates": [56.37446160169872, -45.216386242527875]}}, {"type": "Feature", "properties": {"norad_id": 30279, "name": "FENGYUN 1C DEB", "group": "fengyun-1c-debris", "lat": 25.33727784083247, "lon": 95.26752124602349, "alt_km": 716.0777318548453, "timestamp": "2025-12-02T13:52:17.537335+00:00", "meta": {"OBJECT_NAME": "FENGYUN 1C DEB", "OBJECT_ID": "1999-025YQ", "EPOCH": "2025-12-02T07:06:57.371904", "MEAN_MOTION": 14.23038731, "ECCENTRICITY": 0.02197498, "INCLINATION": 99.1488, "RA_OF_ASC_NODE": 270.5988, "ARG_OF_PERICENTER": 102.3984, "MEAN_ANOMALY": 48.6126, "EPHEMERIS_TYPE": 0, "CLASSIFICATION_TYPE": "U", "NORAD_CAT_ID": 30279, "ELEMENT_SET_NO": 999, "REV_AT_EPOCH": 97462, "BSTAR": 0.00065386585, "MEAN_MOTION_DOT": 1.839e-05, "MEAN_MOTION_DDOT": 0}, "tle": {"line1": "1 30279U 99025YQ  25336.29649736  .00001839  00000+0  65387-3 0  9993", "line2": "2 30279  99.1488 270.5988 0219749 102.3984  48.6126 14.23038731974627"}}, "geometry": {"type": "Point", "coordinates": [95.26752124602349, 25.33727784083247]}}, {"type": "Feature", "properties": {"norad_id": 30280, "name": "FENGYUN 1C DEB", "group": "fengyun-1c-debris", "lat": 71.4609812541088, "lon": 173.83163806290682, "alt_km": 910.7623159164605, "timestamp": "2025-12-02T13:52:17.537345+00:00", "meta": {"OBJECT_NAME": "FENGYUN 1C DEB", "OBJECT_ID": "1999-025YR", "EPOCH": "2025-12-01T22:12:31.876416", "MEAN_MOTION": 13.98320695, "ECCENTRICITY": 0.00809719, "INCLINATION": 98.7747, "RA_OF_ASC_NODE": 325.7837, "ARG_OF_PERICENTER": 359.8733, "MEAN_ANOMALY": 62.1986, "EPHEMERIS_TYPE": 0, "CLASSIFICATION_TYPE": "U", "NORAD_CAT_ID": 30280, "ELEMENT_SET_NO": 999, "REV_AT_EPOCH": 96255, "BSTAR": 0.00036498331, "MEAN_MOTION_DOT": 4.94e-06, "MEAN_MOTION_DDOT": 0}, "tle": {"line1": "1 30280U 99025YR  25335.92536894  .00000494  00000+0  36498-3 0  9991", "line2": "2 30280  98.7747 325.7837 0080971 359.8733  62.1986 13.98320695962550"}}, "geometry": {"type": "Point", "coordinates": [173.83163806290682, 71.4609812541088]}}]}